1 19109U 63014EJ  25030.22733912  .00000001  00000-0  00000-0 0  9994
2 19109  87.1797 123.5873 0813295 278.8403  72.1305  8.69506119414631
1 19109U 63014EJ  25030.22733912  .00000001  00000-0  00000+0 0  9993
2 19109  87.1797 123.5873 0813295 278.8403  72.1305  8.69506119 35898
1 19109U 63014EJ  25032.18306859  .00000001  00000-0  00000-0 0  9997
2 19109  87.1798 123.3855 0816341 276.8461  74.0281  8.69523181414808
1 19109U 63014EJ  25032.18306859  .00000001  00000-0  00000+0 0  9996
2 19109  87.1798 123.3855 0816341 276.8461  74.0281  8.69523181 36066
1 19109U 63014EJ  25033.67860291  .00000001  00000-0  00000-0 0  9997
2 19109  87.1784 123.2301 0818819 275.3264  75.4794  8.69536136414937
1 19109U 63014EJ  25033.67860291  .00000001  00000-0  00000+0 0  9996
2 19109  87.1784 123.2301 0818819 275.3264  75.4794  8.69536136 36195
1 19109U 63014EJ  25035.17411684  .00000001  00000-0  00000-0 0  9992
2 19109  87.1787 123.0759 0821148 273.8075  76.9376  8.69548827415064
1 19109U 63014EJ  25035.17411684  .00000001  00000-0  00000+0 0  9991
2 19109  87.1787 123.0759 0821148 273.8075  76.9376  8.69548827 36322
1 19109U 63014EJ  25035.63427190  .00000001  00000-0  00000-0 0  9992
2 19109  87.1773 123.0269 0822017 273.3418  77.3841  8.69551315415100
1 19109U 63014EJ  25035.63427190  .00000001  00000-0  00000+0 0  9991
2 19109  87.1773 123.0269 0822017 273.3418  77.3841  8.69551315 36367
1 19109U 63014EJ  25042.19129152  .00003079  00000-0  97324+0 0  9990
2 19109  87.1824 122.3509 0832775 266.7417  83.7946  8.69600081415677
1 19109U 63014EJ  25042.19129152  .00003079  00000-0  97324+0 0  9990
2 19109  87.1824 122.3509 0832775 266.7417  83.7946  8.69600081 36935
1 19109U 63014EJ  25045.18210414  .00000001  00000-0  00000-0 0  9992
2 19109  87.1824 122.0415 0837712 263.7535  86.7368  8.69624320415936
1 19109U 63014EJ  25045.18210414  .00000001  00000-0  00000+0 0  9991
2 19109  87.1824 122.0415 0837712 263.7535  86.7368  8.69624320 37194
1 19109U 63014EJ  25045.64222231  .00000001  00000-0  00000-0 0  9993
2 19109  87.1831 121.9937 0838361 263.2919  87.1949  8.69628275415970
1 19109U 63014EJ  25045.64222231  .00000001  00000-0  00000+0 0  9992
2 19109  87.1831 121.9937 0838361 263.2919  87.1949  8.69628275 37239
1 19109U 63014EJ  25048.17285415  .00000001  00000-0  00000-0 0  9997
2 19109  87.1822 121.7309 0841895 260.7652  89.7140  8.69645350416192
1 19109U 63014EJ  25048.17285415  .00000001  00000-0  00000+0 0  9996
2 19109  87.1822 121.7309 0841895 260.7652  89.7140  8.69645350 37450
1 19109U 63014EJ  25053.11897547  .00001711  00000-0  53300+0 0  9991
2 19109  87.1828 121.2193 0849164 255.8566  94.6584  8.69669454416626
1 19109U 63014EJ  25053.11897547  .00001711  00000-0  53300+0 0  9991
2 19109  87.1828 121.2193 0849164 255.8566  94.6584  8.69669454 37883
1 19109U 63014EJ  25056.10960048  .00001218  00000-0  37748+0 0  9990
2 19109  87.1869 120.9100 0854481 252.9410  97.6192  8.69682619416883
1 19109U 63014EJ  25056.10960048  .00001218  00000-0  37748+0 0  9990
2 19109  87.1869 120.9100 0854481 252.9410  97.6192  8.69682619 38142
1 19109U 63014EJ  25057.60490276  .00000602  00000-0  18627+0 0  9998
2 19109  87.1861 120.7562 0855514 251.4307  99.1830  8.69686208417012
1 19109U 63014EJ  25057.60490276  .00000602  00000-0  18627+0 0  9998
2 19109  87.1861 120.7562 0855514 251.4307  99.1830  8.69686208 38279
1 19109U 63014EJ  25066.57673841  .00000174  00000-0  53248-1 0  9999
2 19109  87.1779 119.8218 0866313 242.5897 108.4273  8.69690440 39053
1 19109U 63014EJ  25071.52277669  .00000108  00000-0  32792-1 0  9996
2 19109  87.1764 119.3076 0871358 237.7124 113.6427  8.69691187 39483
1 19109U 63014EJ  25074.51341167 -.00000069  00000-0 -21484-1 0  9997
2 19109  87.1734 118.9958 0874026 234.7526 116.8479  8.69691919 39746
1 19109U 63014EJ  25075.54863175  .00000046  00000-0  13563-1 0  9991
2 19109  87.1611 118.8861 0875106 233.7433 117.9454  8.69691823418579
1 19109U 63014EJ  25075.54863175  .00000046  00000-0  13563-1 0  9991
2 19109  87.1611 118.8861 0875106 233.7433 117.9454  8.69691823 39837
1 19109U 63014EJ  25077.50404655  .00000163  00000-0  49269-1 0  9995
2 19109  87.1639 118.6799 0877138 231.8215 120.0439  8.69694283418741
1 19109U 63014EJ  25077.50404655  .00000163  00000-0  49269-1 0  9995
2 19109  87.1639 118.6799 0877138 231.8215 120.0439  8.69694283 40001
1 19109U 63014EJ  25081.52991767  .00000147  00000-0  44094-1 0  9990
2 19109  87.1676 118.2585 0880439 227.8339 124.4426  8.69693927419098
1 19109U 63014EJ  25081.52991767  .00000147  00000-0  44094-1 0  9990
2 19109  87.1676 118.2585 0880439 227.8339 124.4426  8.69693927 40357
1 19109U 63014EJ  25086.47600125  .00000121  00000-0  36030-1 0  9997
2 19109  87.1611 117.7408 0884103 222.9203 129.9298  8.69696104419528
1 19109U 63014EJ  25086.47600125  .00000121  00000-0  36030-1 0  9997
2 19109  87.1611 117.7408 0884103 222.9203 129.9298  8.69696104 40786
1 19109U 63014EJ  25092.45734642 -.00000060  00000-0 -18532-1 0  9995
2 19109  87.1586 117.1133 0886431 216.8582 136.8074  8.69697238420043
1 19109U 63014EJ  25092.45734642 -.00000060  00000-0 -18532-1 0  9995
2 19109  87.1586 117.1133 0886431 216.8582 136.8074  8.69697238 41301
1 19109U 63014EJ  25095.44803014 -.00000007  00000-0 -27227-2 0  9990
2 19109  87.1516 116.8009 0887280 213.8092 140.3028  8.69697304420302
1 19109U 63014EJ  25095.44803014 -.00000007  00000-0 -27227-2 0  9990
2 19109  87.1516 116.8009 0887280 213.8092 140.3028  8.69697304 41569
1 19109U 63014EJ  25096.48326747  .00000147  00000-0  43765-1 0  9995
2 19109  87.1518 116.6925 0887678 212.7521 141.5189  8.69697451 41656
1 19109U 63014EJ  25098.43871464  .00000072  00000-0  21099-1 0  9996
2 19109  87.1492 116.4868 0888542 210.7585 143.8184  8.69698397420561
1 19109U 63014EJ  25098.43871464  .00000072  00000-0  21099-1 0  9996
2 19109  87.1492 116.4868 0888542 210.7585 143.8184  8.69698397 41829
1 19109U 63014EJ  25101.42941858  .00000040  00000-0  11454-1 0  9994
2 19109  87.1430 116.1729 0888179 207.6122 147.4749  8.69699104420827
1 19109U 63014EJ  25101.42941858  .00000040  00000-0  11454-1 0  9994
2 19109  87.1430 116.1729 0888179 207.6122 147.4749  8.69699104 42085
1 19109U 63014EJ  25102.46465611  .00000094  00000-0  27497-1 0  9990
2 19109  87.1440 116.0637 0888788 206.5567 148.7013  8.69699068420919
1 19109U 63014EJ  25102.46465611  .00000094  00000-0  27497-1 0  9990
2 19109  87.1440 116.0637 0888788 206.5567 148.7013  8.69699068 42177
1 19109U 63014EJ  25104.42011411 -.00000014  00000-0 -48334-2 0  9991
2 19109  87.1435 115.8586 0889016 204.5117 151.0888  8.69699769421081
1 19109U 63014EJ  25104.42011411 -.00000014  00000-0 -48334-2 0  9991
2 19109  87.1435 115.8586 0889016 204.5117 151.0888  8.69699769 42349
1 19109U 63014EJ  25105.45535284  .00000104  00000-0  30697-1 0  9994
2 19109  87.1413 115.7504 0889544 203.4517 152.3270  8.69700045421173
1 19109U 63014EJ  25105.45535284  .00000104  00000-0  30697-1 0  9994
2 19109  87.1413 115.7504 0889544 203.4517 152.3270  8.69700045 42431
1 19109U 63014EJ  25108.44605436  .00000068  00000-0  19583-1 0  9993
2 19109  87.1390 115.4366 0890200 200.3374 155.9803  8.69700290421430
1 19109U 63014EJ  25108.44605436  .00000068  00000-0  19583-1 0  9993
2 19109  87.1390 115.4366 0890200 200.3374 155.9803  8.69700290 42697
1 19109U 63014EJ  25111.43675975  .00000127  00000-0  37245-1 0  9992
2 19109  87.1360 115.1220 0890864 197.2078 159.6658  8.69700849421691
1 19109U 63014EJ  25111.43675975  .00000127  00000-0  37245-1 0  9992
2 19109  87.1360 115.1220 0890864 197.2078 159.6658  8.69700849 42959
1 19109U 63014EJ  25125.35506571 -.00000038  00000-0 -12364-1 0  9991
2 19109  87.1209 113.6533 0894873 182.2910 177.3683  8.69705366422905
1 19109U 63014EJ  25125.35506571 -.00000038  00000-0 -12364-1 0  9991
2 19109  87.1209 113.6533 0894873 182.2910 177.3683  8.69705366 44163
1 19109U 63014EJ  25126.39031173  .00000086  00000-0  24573-1 0  9993
2 19109  87.1232 113.5451 0895518 181.1604 178.7156  8.69705771422993
1 19109U 63014EJ  25126.39031173  .00000086  00000-0  24573-1 0  9993
2 19109  87.1232 113.5451 0895518 181.1604 178.7156  8.69705771 44252
1 19109U 63014EJ  25128.34577215 -.00000133  00000-0 -40839-1 0  9990
2 19109  87.1210 113.3386 0896589 179.0673 181.2105  8.69706277423160
1 19109U 63014EJ  25128.34577215 -.00000133  00000-0 -40839-1 0  9990
2 19109  87.1210 113.3386 0896589 179.0673 181.2105  8.69706277 44428
1 19109U 63014EJ  25129.38101084  .00000043  00000-0  11753-1 0  9993
2 19109  87.1216 113.2290 0897463 177.9910 182.4939  8.69706970423250
1 19109U 63014EJ  25129.38101084  .00000043  00000-0  11753-1 0  9993
2 19109  87.1216 113.2290 0897463 177.9910 182.4939  8.69706970 44518
1 19109U 63014EJ  25132.37170275 -.00000148  00000-0 -45266-1 0  9998
2 19109  87.0828 112.9229 0899294 174.8835 186.1998  8.69706995423514
1 19109U 63014EJ  25132.37170275 -.00000148  00000-0 -45266-1 0  9998
2 19109  87.0828 112.9229 0899294 174.8835 186.1998  8.69706995 44771
1 19109U 63014EJ  25134.32715948 -.00000091  00000-0 -28230-1 0  9996
2 19109  87.0849 112.7135 0900454 172.7689 188.7210  8.69708972423686
1 19109U 63014EJ  25134.32715948 -.00000091  00000-0 -28230-1 0  9996
2 19109  87.0849 112.7135 0900454 172.7689 188.7210  8.69708972 44944
1 19109U 63014EJ  25135.36241840  .00000068  00000-0  18998-1 0  9998
2 19109  87.1215 112.5976 0901071 171.4936 190.2408  8.69708850423774
1 19109U 63014EJ  25141.34381526 -.00000034  00000-0 -11382-1 0  9994
2 19109  87.1177 111.9662 0905326 164.9482 198.0317  8.69710174424291
1 19109U 63014EJ  25141.34381526 -.00000034  00000-0 -11382-1 0  9994
2 19109  87.1177 111.9662 0905326 164.9482 198.0317  8.69710174 45560
1 19109U 63014EJ  25144.33449974 -.00000066  00000-0 -20866-1 0  9990
2 19109  87.1163 111.6496 0908069 161.6984 201.8912  8.69712434424550
1 19109U 63014EJ  25144.33449974 -.00000066  00000-0 -20866-1 0  9990
2 19109  87.1163 111.6496 0908069 161.6984 201.8912  8.69712434 45829
